STARLINK-3528           
1 51714U 22016A   22080.91667824 -.00716811  00000+0 -83125-2 0  9990
2 51714  53.2175 359.6780 0001233  61.5181 238.7410 15.63436587  5673
STARLINK-3533           
1 51715U 22016B   22080.91667824 -.00716931  00000+0 -81888-2 0  9998
2 51715  53.2176 359.6739 0001121  78.9773 231.8432 15.63820067  5739
STARLINK-3543           
1 51716U 22016C   22080.91667824 -.00716661  00000+0 -82689-2 0  9999
2 51716  53.2176 359.6768 0001137  82.2000 221.6180 15.63564304  5679
STARLINK-3445           
1 51717U 22016D   22080.91667824 -.00716762  00000+0 -82284-2 0  9993
2 51717  53.2176 359.6753 0001108  86.7010 220.6374 15.63692167  5743
STARLINK-3546           
1 51718U 22016E   22080.91667824 -.00715215  00000+0 -88339-2 0  9993
2 51718  53.2176 359.6662 0001490  47.8210 216.2006 15.61826210  5678
STARLINK-3540           
1 51719U 22016F   22081.58334491 -.00712566  00000+0 -84277-2 0  9992
2 51719  53.2175 356.4249 0001106  70.1192  38.5282 15.62925483  5771
STARLINK-3526           
1 51720U 22016G   22080.91667824 -.00715306  00000+0 -87913-2 0  9994
2 51720  53.2175 359.6660 0001404  52.9127 215.1514 15.61954071  5676
STARLINK-3524           
1 51721U 22016H   22080.91667824 -.00717440  00000+0 -81121-2 0  9991
2 51721  53.2176 359.6713 0001150  69.3145 248.3549 15.64075947  5739
STARLINK-3535           
1 51722U 22016J   22080.91667824 -.00715662  00000+0 -87099-2 0  9996
2 51722  53.2176 359.6643 0001380  54.1525 222.4106 15.62205686  5679
STARLINK-3531           
1 51723U 22016K   22081.58334491  .00089868  00000+0  56279-3 0  9999
2 51723  53.2206 355.5094 0008812 280.1996 265.6816 15.76046438  5848
STARLINK-3529           
1 51724U 22016L   22080.91667824 -.00715936  00000+0 -86267-2 0  9998
2 51724  53.2175 359.6634 0001308  59.0221 225.3596 15.62461460  5676
STARLINK-3522           
1 51725U 22016M   22080.91667824 -.00715454  00000+0 -87510-2 0  9996
2 51725  53.2175 359.6645 0001334  57.4292 215.1670 15.62077757  5748
STARLINK-3527           
1 51726U 22016N   22081.58334491  .00075802  00000+0  54081-3 0  9994
2 51726  53.2171 356.1279 0001023 104.4090 135.2964 15.73149843  5784
STARLINK-3532           
1 51727U 22016P   22080.91667824 -.00715851  00000+0 -86689-2 0  9995
2 51727  53.2175 359.6637 0001344  56.5725 223.9190 15.62333609  5670
STARLINK-3448           
1 51728U 22016Q   22081.58334491  .00077756  00000+0  55428-3 0  9992
2 51728  53.2171 356.1254 0001141 102.5806 138.3994 15.73159349  5851
STARLINK-3523           
1 51729U 22016R   22081.58334491  .00059083  00000+0  42307-3 0  9998
2 51729  53.2189 356.1285 0001250  91.5057 147.6029 15.73164418  5856
STARLINK-3530           
1 51730U 22016S   22081.25001157  .00019714  00000+0  14458-3 0  9997
2 51730  53.2172 357.7741 0000835  93.6107  59.8411 15.73195041  5733
STARLINK-3514           
1 51731U 22016T   22081.58334491  .00086023  00000+0  61213-3 0  9992
2 51731  53.2169 356.1264 0001222 102.3174 138.1341 15.73159791  5832
STARLINK-3518           
1 51732U 22016U   22081.58334491  .00063106  00000+0  45145-3 0  9996
2 51732  53.2172 356.1219 0000989 106.7656 136.2179 15.73160059  5858
STARLINK-3525           
1 51733U 22016V   22081.25001157  .00084017  00000+0  59916-3 0  9996
2 51733  53.2189 357.7750 0001229  83.2671  69.4773 15.73118191  5732
STARLINK-3450           
1 51734U 22016W   22081.58334491  .00079854  00000+0  56943-3 0  9993
2 51734  53.2172 356.1183 0001140  93.4333 151.3672 15.73140640  5832
STARLINK-3517           
1 51735U 22016X   22081.58334491  .00082175  00000+0  58507-3 0  9992
2 51735  53.2168 356.1199 0001062 115.8750 127.6902 15.73165523  5839
STARLINK-3447           
1 51736U 22016Y   22081.58334491 -.00041146  00000+0 -28986-3 0  9996
2 51736  53.2171 356.1158 0000982  97.2269 148.8696 15.73226736  5858
STARLINK-3509           
1 51737U 22016Z   22081.25001157  .00025030  00000+0  18258-3 0  9994
2 51737  53.2169 357.7700 0001078  94.4560  60.9416 15.73153727  5736
STARLINK-3515           
1 51738U 22016AA  22081.58334491  .00033573  00000+0  24302-3 0  9999
2 51738  53.2172 356.1130 0001132 103.4901 143.9836 15.73166028  5839
STARLINK-3516           
1 51739U 22016AB  22081.25001157  .00085562  00000+0  60942-3 0  9999
2 51739  53.2170 357.7677 0001180  80.4203  76.1739 15.73140090  5798
STARLINK-3500           
1 51740U 22016AC  22081.58334491  .00003213  00000+0  27309-4 0  9991
2 51740  53.2170 356.1095 0001044 104.7373 144.5986 15.73186945  5786
STARLINK-3520           
1 51741U 22016AD  22081.25001157  .00022178  00000+0  16251-3 0  9990
2 51741  53.2170 357.7650 0001056  89.2248  68.6554 15.73128107  5785
STARLINK-3521           
1 51742U 22016AE  22081.58334491  .00080243  00000+0  57185-3 0  9995
2 51742  53.2172 356.1084 0001151 101.8066 148.1183 15.73153232  5854
STARLINK-3512           
1 51743U 22016AF  22081.25001157  .00006832  00000+0  53032-4 0  9990
2 51743  53.2168 357.7625 0001326 100.3071  58.8437 15.73209809  5808
STARLINK-3452           
1 51744U 22016AG  22080.91667824  .00012578  00000+0  93992-4 0  9995
2 51744  53.2178 359.4053 0001183 117.0280 316.4626 15.73177018  5676
STARLINK-3449           
1 51745U 22016AH  22081.58334491  .00046609  00000+0  33497-3 0  9996
2 51745  53.2170 356.1102 0001023 107.6271 141.0431 15.73178706  5857
STARLINK-3502           
1 51746U 22016AJ  22081.58334491  .00078800  00000+0  56229-3 0  9993
2 51746  53.2171 356.1036 0001208  87.1765 165.2599 15.73130382  5839
STARLINK-3446           
1 51747U 22016AK  22081.58334491  .00077561  00000+0  55278-3 0  9990
2 51747  53.2169 356.1067 0001125 112.0223 138.5583 15.73165160  5856
STARLINK-3501           
1 51748U 22016AL  22081.58334491  .00026440  00000+0  19251-3 0  9992
2 51748  53.2170 356.1006 0001268  87.7676 166.0657 15.73162860  5784
STARLINK-3451           
1 51749U 22016AM  22081.25001157  .00084244  00000+0  60000-3 0  9991
2 51749  53.2175 357.7554 0001302  69.8302  93.1227 15.73147590  5787
STARLINK-3505           
1 51750U 22016AN  22081.58334491  .00079250  00000+0  56476-3 0  9992
2 51750  53.2171 356.0986 0001198 107.8232 147.2243 15.73158644  5831
STARLINK-3506           
1 51751U 22016AP  22081.25001157  .00087399  00000+0  62199-3 0  9999
2 51751  53.2169 357.7529 0000857  84.3578  79.8974 15.73150878  5789
STARLINK-3511           
1 51752U 22016AQ  22081.58334491  .00080649  00000+0  57482-3 0  9996
2 51752  53.2173 356.0979 0001229  96.6162 159.0380 15.73148087  5832
STARLINK-3507           
1 51753U 22016AR  22081.58334491  .00078312  00000+0  55796-3 0  9997
2 51753  53.2170 356.0993 0001296  94.1746 160.2402 15.73168398  5781
STARLINK-3457           
1 51754U 22016AS  22081.58334491  .00079007  00000+0  56314-3 0  9997
2 51754  53.2170 356.0947 0001193  94.0562 162.8963 15.73155300  5837
STARLINK-3460           
1 51755U 22016AT  22081.58334491 -.00025339  00000+0 -17670-3 0  9991
2 51755  53.2169 356.0953 0000881 115.5697 140.7920 15.73197465  5830
STARLINK-3513           
1 51756U 22016AU  22081.58334491 -.00032889  00000+0 -23079-3 0  9990
2 51756  53.2172 356.0941 0000992  95.8997 161.7339 15.73205023  5789
STARLINK-3459           
1 51757U 22016AV  22081.58334491  .00077243  00000+0  55029-3 0  9992
2 51757  53.2168 356.0920 0001313  97.1623 161.0787 15.73176050  5834
STARLINK-3458           
1 51758U 22016AW  22081.58334491  .00078136  00000+0  55693-3 0  9992
2 51758  53.2171 356.0913 0001148  79.9280 178.9759 15.73159778  5850
STARLINK-3456           
1 51759U 22016AX  22081.58334491 -.00017041  00000+0 -11730-3 0  9997
2 51759  53.2167 356.0889 0001037  90.1580 169.4001 15.73190718  5857
FALCON 9 DEB            
1 51760U 22016AY  22081.13948190  .00135845  00000+0  52947-3 0  9993
2 51760  53.2305 356.6587 0004660 348.1089  11.9826 15.86189561  4672
FALCON 9 DEB            
1 51761U 22016AZ  22080.81365595  .00147020  00000+0  54685-3 0  9999
2 51761  53.2272 358.1672 0004242 306.4655  53.5980 15.87114928  4624
FALCON 9 DEB            
1 51762U 22016BA  22081.04808050  .00141658  00000+0  50648-3 0  9990
2 51762  53.2256 356.7670 0008212 328.3746  31.6786 15.87896147  4669
FALCON 9 DEB            
1 51763U 22016BB  22081.48467992  .00163486  00000+0  57073-3 0  9997
2 51763  53.2222 354.5076 0008267 311.5115  48.5201 15.88312550  4732
STARLINK-3622           
1 51768U 22017A   22080.91667824 -.00001593  00000+0 -69439-5 0  9999
2 51768  53.2194  23.4915 0001353  63.2073 299.1944 15.73178263  5051
STARLINK-3621           
1 51769U 22017B   22081.25001157  .00047427  00000+0  34118-3 0  9997
2 51769  53.2192  21.8412 0001262  54.0999  38.5629 15.73148364  5108
STARLINK-3612           
1 51770U 22017C   22081.25001157 -.00014074  00000+0 -95974-4 0  9991
2 51770  53.2175  21.8431 0001172  59.6741  32.3009 15.73213058  5105
STARLINK-3614           
1 51771U 22017D   22081.58334491 -.00007595  00000+0 -49756-4 0  9995
2 51771  53.2172  20.1894 0001305  58.6129 123.5934 15.73195815  5150
STARLINK-3623           
1 51772U 22017E   22081.25001157  .00011275  00000+0  84652-4 0  9992
2 51772  53.2181  21.8360 0001315  54.4653  40.7118 15.73197608  5150
STARLINK-3624           
1 51773U 22017F   22081.25001157  .00094458  00000+0  67194-3 0  9998
2 51773  53.2194  21.8388 0001051  51.7771  42.0861 15.73128676  5118
STARLINK-3629           
1 51774U 22017G   22081.25001157  .00052938  00000+0  38023-3 0  9995
2 51774  53.2176  21.8334 0000993  60.6758  35.8100 15.73138422  5114
STARLINK-3620           
1 51775U 22017H   22080.91667824  .00027887  00000+0  20266-3 0  9992
2 51775  53.2194  23.4847 0001235  84.8364 280.7963 15.73175890  5054
STARLINK-3608           
1 51776U 22017J   22081.25001157  .00018402  00000+0  13544-3 0  9996
2 51776  53.2192  21.8332 0001301  46.7316  50.4005 15.73165393  5104
